ONEWEB-0415             
1 51624U 22012C   25255.98467201  .00000413  00000+0  11465-2 0  9997
2 51624  87.8741  91.5504 0001558  95.7451 264.3854 13.10375333172987
ONEWEB-0416             
1 51625U 22012D   25255.99630123  .00000685  00000+0  19253-2 0  9998
2 51625  87.8740  91.5680 0001702  88.1594 271.9728 13.10373768173027
ONEWEB-0422             
1 51626U 22012E   25256.21224866 -.00000010  00000+0 -60068-4 0  9994
2 51626  87.9046  60.9397 0001136  74.9683 285.1574 13.17647332177338
ONEWEB-0423             
1 51627U 22012F   25255.90174780  .00000031  00000+0  47085-4 0  9994
2 51627  87.9046  61.0105 0001702  88.5744 271.5583 13.17650604177184
ONEWEB-0425             
1 51628U 22012G   25256.00625780  .00000501  00000+0  13995-2 0  9991
2 51628  87.8738  91.5355 0002001  82.6287 277.5067 13.10369481173022
ONEWEB-0428             
1 51629U 22012H   25255.98633313  .00000457  00000+0  12730-2 0  9995
2 51629  87.8741  91.5608 0001478  83.8867 276.2429 13.10374958172989
ONEWEB-0431             
1 51630U 22012J   25256.26175059 -.00000631  00000+0 -18454-2 0  9992
2 51630  87.8744  91.4782 0001251 107.5653 252.5611 13.10374358173077
ONEWEB-0434             
1 51631U 22012K   25256.23865431  .00000393  00000+0  10888-2 0  9996
2 51631  87.8739  91.5245 0002285  79.5779 280.5606 13.10370663173050
ONEWEB-0435             
1 51632U 22012L   25256.01786536 -.00000035  00000+0 -13701-3 0  9994
2 51632  87.8719  91.5604 0001261  75.1293 284.9974 13.10368557173015
ONEWEB-0436             
1 51633U 22012M   25256.19705419 -.00000022  00000+0 -88693-4 0  9994
2 51633  87.9036  60.9324 0001469  92.3674 267.7625 13.17650419177207
ONEWEB-0438             
1 51634U 22012N   25256.00127832  .00000697  00000+0  19613-2 0  9992
2 51634  87.8739  91.5643 0001839  84.2315 275.9022 13.10370778173044
ONEWEB-0439             
1 51635U 22012P   25256.00459623  .00000568  00000+0  15912-2 0  9994
2 51635  87.8738  91.5522 0001653  83.5351 276.5965 13.10369903173025
ONEWEB-0442             
1 51636U 22012Q   25256.18948380  .00000003  00000+0 -25306-4 0  9992
2 51636  87.9037  60.9877 0002382  94.4119 265.7285 13.17648690177192
ONEWEB-0443             
1 51637U 22012R   25256.20888100 -.00000049  00000+0 -15849-3 0  9990
2 51637  87.9029  60.9914 0001900  82.9865 277.1483 13.17648861177244
ONEWEB-0444             
1 51638U 22012S   25255.99464447  .00000672  00000+0  18883-2 0  9990
2 51638  87.8734  91.5542 0001590  80.7313 279.3995 13.10373766173030
ONEWEB-0445             
1 51639U 22012T   25256.24528947  .00000060  00000+0  13640-3 0  9994
2 51639  87.8742  91.4578 0001753  92.1490 267.9838 13.10370614173074
ONEWEB-0446             
1 51640U 22012U   25255.99297945  .00000639  00000+0  17930-2 0  9995
2 51640  87.8740  91.5700 0001707  93.5000 266.6323 13.10372761173028
