[{"OBJECT_NAME":"ONEWEB-0415","OBJECT_ID":"2022-012C","EPOCH":"2025-09-12T23:37:55.661664","MEAN_MOTION":13.10375333,"ECCENTRICITY":0.00015589,"INCLINATION":87.8741,"RA_OF_ASC_NODE":91.5504,"ARG_OF_PERICENTER":95.7451,"MEAN_ANOMALY":264.3854,"EPHEMERIS_TYPE":0,"CLASSIFICATION_TYPE":"U","NORAD_CAT_ID":51624,"ELEMENT_SET_NO":999,"REV_AT_EPOCH":17298,"BSTAR":0.0011465499,"MEAN_MOTION_DOT":4.13e-6,"MEAN_MOTION_DDOT":0},{"OBJECT_NAME":"ONEWEB-0416","OBJECT_ID":"2022-012D","EPOCH":"2025-09-12T23:54:40.426272","MEAN_MOTION":13.10373768,"ECCENTRICITY":0.00017025,"INCLINATION":87.874,"RA_OF_ASC_NODE":91.568,"ARG_OF_PERICENTER":88.1594,"MEAN_ANOMALY":271.9728,"EPHEMERIS_TYPE":0,"CLASSIFICATION_TYPE":"U","NORAD_CAT_ID":51625,"ELEMENT_SET_NO":999,"REV_AT_EPOCH":17302,"BSTAR":0.0019253262,"MEAN_MOTION_DOT":6.85e-6,"MEAN_MOTION_DDOT":0},{"OBJECT_NAME":"ONEWEB-0422","OBJECT_ID":"2022-012E","EPOCH":"2025-09-13T05:05:38.284224","MEAN_MOTION":13.17647332,"ECCENTRICITY":0.00011366,"INCLINATION":87.9046,"RA_OF_ASC_NODE":60.9397,"ARG_OF_PERICENTER":74.9683,"MEAN_ANOMALY":285.1574,"EPHEMERIS_TYPE":0,"CLASSIFICATION_TYPE":"U","NORAD_CAT_ID":51626,"ELEMENT_SET_NO":999,"REV_AT_EPOCH":17733,"BSTAR":-6.0068235e-5,"MEAN_MOTION_DOT":-1.0e-7,"MEAN_MOTION_DDOT":0},{"OBJECT_NAME":"ONEWEB-0423","OBJECT_ID":"2022-012F","EPOCH":"2025-09-12T21:38:31.009920","MEAN_MOTION":13.17650604,"ECCENTRICITY":0.00017026,"INCLINATION":87.9046,"RA_OF_ASC_NODE":61.0105,"ARG_OF_PERICENTER":88.5744,"MEAN_ANOMALY":271.5583,"EPHEMERIS_TYPE":0,"CLASSIFICATION_TYPE":"U","NORAD_CAT_ID":51627,"ELEMENT_SET_NO":999,"REV_AT_EPOCH":17718,"BSTAR":4.7085333e-5,"MEAN_MOTION_DOT":3.1e-7,"MEAN_MOTION_DDOT":0},{"OBJECT_NAME":"ONEWEB-0425","OBJECT_ID":"2022-012G","EPOCH":"2025-09-13T00:09:00.673920","MEAN_MOTION":13.10369481,"ECCENTRICITY":0.00020013,"INCLINATION":87.8738,"RA_OF_ASC_NODE":91.5355,"ARG_OF_PERICENTER":82.6287,"MEAN_ANOMALY":277.5067,"EPHEMERIS_TYPE":0,"CLASSIFICATION_TYPE":"U","NORAD_CAT_ID":51628,"ELEMENT_SET_NO":999,"REV_AT_EPOCH":17302,"BSTAR":0.0013995448,"MEAN_MOTION_DOT":5.01e-6,"MEAN_MOTION_DDOT":0},{"OBJECT_NAME":"ONEWEB-0428","OBJECT_ID":"2022-012H","EPOCH":"2025-09-12T23:40:19.182432","MEAN_MOTION":13.10374958,"ECCENTRICITY":0.00014787,"INCLINATION":87.8741,"RA_OF_ASC_NODE":91.5608,"ARG_OF_PERICENTER":83.8867,"MEAN_ANOMALY":276.2429,"EPHEMERIS_TYPE":0,"CLASSIFICATION_TYPE":"U","NORAD_CAT_ID":51629,"ELEMENT_SET_NO":999,"REV_AT_EPOCH":17298,"BSTAR":0.0012730299,"MEAN_MOTION_DOT":4.57e-6,"MEAN_MOTION_DDOT":0},{"OBJECT_NAME":"ONEWEB-0431","OBJECT_ID":"2022-012J","EPOCH":"2025-09-13T06:16:55.250976","MEAN_MOTION":13.10374358,"ECCENTRICITY":0.00012519,"INCLINATION":87.8744,"RA_OF_ASC_NODE":91.4782,"ARG_OF_PERICENTER":107.5653,"MEAN_ANOMALY":252.5611,"EPHEMERIS_TYPE":0,"CLASSIFICATION_TYPE":"U","NORAD_CAT_ID":51630,"ELEMENT_SET_NO":999,"REV_AT_EPOCH":17307,"BSTAR":-0.0018454041,"MEAN_MOTION_DOT":-6.31e-6,"MEAN_MOTION_DDOT":0},{"OBJECT_NAME":"ONEWEB-0434","OBJECT_ID":"2022-012K","EPOCH":"2025-09-13T05:43:39.732384","MEAN_MOTION":13.10370663,"ECCENTRICITY":0.00022859,"INCLINATION":87.8739,"RA_OF_ASC_NODE":91.5245,"ARG_OF_PERICENTER":79.5779,"MEAN_ANOMALY":280.5606,"EPHEMERIS_TYPE":0,"CLASSIFICATION_TYPE":"U","NORAD_CAT_ID":51631,"ELEMENT_SET_NO":999,"REV_AT_EPOCH":17305,"BSTAR":0.001088812,"MEAN_MOTION_DOT":3.93e-6,"MEAN_MOTION_DDOT":0},{"OBJECT_NAME":"ONEWEB-0435","OBJECT_ID":"2022-012L","EPOCH":"2025-09-13T00:25:43.567104","MEAN_MOTION":13.10368557,"ECCENTRICITY":0.00012616,"INCLINATION":87.8719,"RA_OF_ASC_NODE":91.5604,"ARG_OF_PERICENTER":75.1293,"MEAN_ANOMALY":284.9974,"EPHEMERIS_TYPE":0,"CLASSIFICATION_TYPE":"U","NORAD_CAT_ID":51632,"ELEMENT_SET_NO":999,"REV_AT_EPOCH":17301,"BSTAR":-0.00013701047,"MEAN_MOTION_DOT":-3.5e-7,"MEAN_MOTION_DDOT":0},{"OBJECT_NAME":"ONEWEB-0436","OBJECT_ID":"2022-012M","EPOCH":"2025-09-13T04:43:45.482016","MEAN_MOTION":13.17650419,"ECCENTRICITY":0.00014697,"INCLINATION":87.9036,"RA_OF_ASC_NODE":60.9324,"ARG_OF_PERICENTER":92.3674,"MEAN_ANOMALY":267.7625,"EPHEMERIS_TYPE":0,"CLASSIFICATION_TYPE":"U","NORAD_CAT_ID":51633,"ELEMENT_SET_NO":999,"REV_AT_EPOCH":17720,"BSTAR":-8.8692997e-5,"MEAN_MOTION_DOT":-2.2e-7,"MEAN_MOTION_DDOT":0},{"OBJECT_NAME":"ONEWEB-0438","OBJECT_ID":"2022-012N","EPOCH":"2025-09-13T00:01:50.446848","MEAN_MOTION":13.10370778,"ECCENTRICITY":0.00018397,"INCLINATION":87.8739,"RA_OF_ASC_NODE":91.5643,"ARG_OF_PERICENTER":84.2315,"MEAN_ANOMALY":275.9022,"EPHEMERIS_TYPE":0,"CLASSIFICATION_TYPE":"U","NORAD_CAT_ID":51634,"ELEMENT_SET_NO":999,"REV_AT_EPOCH":17304,"BSTAR":0.0019613449,"MEAN_MOTION_DOT":6.97e-6,"MEAN_MOTION_DDOT":0},{"OBJECT_NAME":"ONEWEB-0439","OBJECT_ID":"2022-012P","EPOCH":"2025-09-13T00:06:37.114272","MEAN_MOTION":13.10369903,"ECCENTRICITY":0.00016536,"INCLINATION":87.8738,"RA_OF_ASC_NODE":91.5522,"ARG_OF_PERICENTER":83.5351,"MEAN_ANOMALY":276.5965,"EPHEMERIS_TYPE":0,"CLASSIFICATION_TYPE":"U","NORAD_CAT_ID":51635,"ELEMENT_SET_NO":999,"REV_AT_EPOCH":17302,"BSTAR":0.0015911858,"MEAN_MOTION_DOT":5.68e-6,"MEAN_MOTION_DDOT":0},{"OBJECT_NAME":"ONEWEB-0442","OBJECT_ID":"2022-012Q","EPOCH":"2025-09-13T04:32:51.400320","MEAN_MOTION":13.1764869,"ECCENTRICITY":0.00023823,"INCLINATION":87.9037,"RA_OF_ASC_NODE":60.9877,"ARG_OF_PERICENTER":94.4119,"MEAN_ANOMALY":265.7285,"EPHEMERIS_TYPE":0,"CLASSIFICATION_TYPE":"U","NORAD_CAT_ID":51636,"ELEMENT_SET_NO":999,"REV_AT_EPOCH":17719,"BSTAR":-2.5306001e-5,"MEAN_MOTION_DOT":3.0e-8,"MEAN_MOTION_DDOT":0},{"OBJECT_NAME":"ONEWEB-0443","OBJECT_ID":"2022-012R","EPOCH":"2025-09-13T05:00:47.318400","MEAN_MOTION":13.17648861,"ECCENTRICITY":0.00019003,"INCLINATION":87.9029,"RA_OF_ASC_NODE":60.9914,"ARG_OF_PERICENTER":82.9865,"MEAN_ANOMALY":277.1483,"EPHEMERIS_TYPE":0,"CLASSIFICATION_TYPE":"U","NORAD_CAT_ID":51637,"ELEMENT_SET_NO":999,"REV_AT_EPOCH":17724,"BSTAR":-0.00015848529,"MEAN_MOTION_DOT":-4.9e-7,"MEAN_MOTION_DDOT":0},{"OBJECT_NAME":"ONEWEB-0444","OBJECT_ID":"2022-012S","EPOCH":"2025-09-12T23:52:17.282208","MEAN_MOTION":13.10373766,"ECCENTRICITY":0.00015903,"INCLINATION":87.8734,"RA_OF_ASC_NODE":91.5542,"ARG_OF_PERICENTER":80.7313,"MEAN_ANOMALY":279.3995,"EPHEMERIS_TYPE":0,"CLASSIFICATION_TYPE":"U","NORAD_CAT_ID":51638,"ELEMENT_SET_NO":999,"REV_AT_EPOCH":17303,"BSTAR":0.0018883485,"MEAN_MOTION_DOT":6.72e-6,"MEAN_MOTION_DDOT":0},{"OBJECT_NAME":"ONEWEB-0445","OBJECT_ID":"2022-012T","EPOCH":"2025-09-13T05:53:13.010208","MEAN_MOTION":13.10370614,"ECCENTRICITY":0.00017534,"INCLINATION":87.8742,"RA_OF_ASC_NODE":91.4578,"ARG_OF_PERICENTER":92.149,"MEAN_ANOMALY":267.9838,"EPHEMERIS_TYPE":0,"CLASSIFICATION_TYPE":"U","NORAD_CAT_ID":51639,"ELEMENT_SET_NO":999,"REV_AT_EPOCH":17307,"BSTAR":0.0001364039,"MEAN_MOTION_DOT":6.0e-7,"MEAN_MOTION_DDOT":0},{"OBJECT_NAME":"ONEWEB-0446","OBJECT_ID":"2022-012U","EPOCH":"2025-09-12T23:49:53.424480","MEAN_MOTION":13.10372761,"ECCENTRICITY":0.00017074,"INCLINATION":87.874,"RA_OF_ASC_NODE":91.57,"ARG_OF_PERICENTER":93.5,"MEAN_ANOMALY":266.6323,"EPHEMERIS_TYPE":0,"CLASSIFICATION_TYPE":"U","NORAD_CAT_ID":51640,"ELEMENT_SET_NO":999,"REV_AT_EPOCH":17302,"BSTAR":0.0017930079,"MEAN_MOTION_DOT":6.39e-6,"MEAN_MOTION_DDOT":0}]
